0 FALCON 9 DEB
1 39272U 13055H   13275.65951484  .06912673  13379-1  88524-1 0    40
2 39272 080.9975 312.0871 0687059 143.7834 204.2579 14.40655861   425
0 FALCON 9 DEB
1 39272U 13055H   13275.94028547  .05974163  88886-2  74003-1 0    52
2 39272 081.0026 311.7871 0672859 142.8804 222.0951 14.43941583   478
0 FALCON 9 DEB
1 39272U 13055H   13276.14797678  .06157934  98676-2  76418-1 0    64
2 39272 081.0047 311.5684 0661295 142.2459 222.6431 14.46516482   505
0 FALCON 9 DEB
1 39272U 13055H   13276.69990948  .04525598  44513-2  51994-1 0    87
2 39272 081.0114 310.9623 0640741 140.4416 222.2740 14.51839522   577
0 FALCON 9 DEB
1 39272U 13055H   13277.59355602  .04299439  40876-2  47717-1 0    98
2 39272 081.0179 309.9974 0608933 137.4521 225.2418 14.59317287   702
0 FALCON 9 DEB
1 39272U 13055H   13277.79956205  .03947092  33334-2  43446-1 0   108
2 39272 081.0246 309.7656 0602337 136.7036 228.1015 14.60818409   739
0 FALCON 9 DEB
1 39272U 13055H   13278.68773226  .03956893  34897-2  40959-1 0   118
2 39272 081.0328 308.7984 0576807 133.9310 229.2393 14.67440409   862
0 FALCON 9 DEB
1 39272U 13055H   13279.97859588  .03414880  25705-2  33976-1 0   122
2 39272 081.0430 307.3415 0538615 129.2867 229.2967 14.76295587  1054
0 FALCON 9 DEB
1 39272U 13055H   13280.38606939  .03827338  34662-2  37835-1 0   136
2 39272 081.0518 306.8927 0525557 127.9072 237.1163 14.79321274  1116
0 FALCON 9 DEB
1 39272U 13055H   13281.06117896  .04371404  50717-2  41925-1 0   145
2 39272 081.0554 306.1226 0502705 125.8439 238.9551 14.84949410  1221
0 FALCON 9 DEB
1 39272U 13055H   13281.26321346  .04373863  51417-2  42664-1 0   155
2 39272 081.0574 305.9066 0493907 125.0982 239.4358 14.86548902  1257
0 FALCON 9 DEB
1 39272U 13055H   13281.59946055  .04289696  49846-2  39562-1 0   168
2 39272 081.0575 305.5242 0486207 123.7506 240.5057 14.89176693  1304
0 FALCON 9 DEB
1 39272U 13055H   13282.06921502  .04725747  67116-2  44279-1 0   175
2 39272 081.0470 305.0070 0466119 121.5588 242.5806 14.93397724  1374
0 FALCON 9 DEB
1 39272U 13055H   13282.33708256  .04951744  78509-2  45741-1 0   186
2 39272 081.0644 304.7133 0455570 120.9768 243.6841 14.96037816  1417
0 FALCON 9 DEB
1 39272U 13055H   13282.53758424  .06331000  18273-1  57944-1 0   199
2 39272 081.0710 304.4372 0446288 120.2861 245.0664 14.99349409  1445
0 FALCON 9 DEB
1 39272U 13055H   13282.80402118  .06077533  16336-1  61008-1 0   209
2 39272 081.0601 304.1611 0423338 119.6901 244.0845 15.02384960  1485
0 FALCON 9 DEB
1 39272U 13055H   13283.07019296  .04733147  74815-2  39157-1 0   216
2 39272 081.0784 303.8174 0424672 118.0479 245.3365 15.04548411  1523
0 FALCON 9 DEB
1 39272U 13055H   13283.73387789  .05277864  11275-1  40896-1 0   227
2 39272 081.0908 303.0546 0399954 115.7040 248.2175 15.11410297  1628
0 FALCON 9 DEB
1 39272U 13055H   13284.59146048  .04590357  79450-2  32549-1 0   234
2 39272 081.0943 302.0307 0371776 112.6018 244.5663 15.18537061  1755
0 FALCON 9 DEB
1 39272U 13055H   13285.51224096  .04613931  89262-2  29877-1 0   255
2 39272 081.1000 300.9322 0341094 109.1767 251.6264 15.26700452  1892
0 FALCON 9 DEB
1 39272U 13055H   13285.84015579  .04708787  99559-2  29194-1 0   262
2 39272 081.0938 300.5320 0329978 107.7391 255.9970 15.29914976  1947
0 FALCON 9 DEB
1 39272U 13055H   13285.97091249  .04718904  10211-1  28681-1 0   274
2 39272 081.0866 300.3780 0325765 107.4969 256.1876 15.31171949  1961
0 FALCON 9 DEB
1 39272U 13055H   13286.29737886  .04735075  10828-1  28478-1 0   281
2 39272 081.0957 299.9658 0312155 105.7608 257.8043 15.34277973  2017
0 FALCON 9 DEB
1 39272U 13055H   13286.68812626  .05075557  14965-1  29674-1 0   299
2 39272 081.1000 299.5213 0298297 105.0942 257.8614 15.38204354  2071
0 FALCON 9 DEB
1 39272U 13055H   13286.88323552  .05093093  15870-1  28997-1 0   306
2 39272 081.0976 299.2735 0290903 104.2968 259.0270 15.40321168  2105
0 FALCON 9 DEB
1 39272U 13055H   13287.20773985  .05045057  16453-1  28788-1 0   316
2 39272 081.1012 298.8594 0274932 102.7183 260.4824 15.43668274  2152
0 FALCON 9 DEB
1 39272U 13055H   13287.66072546  .05593138  20119-1  27934-1 0   326
2 39272 081.1014 298.3023 0258401 101.6934 261.3535 15.49078112  2220
0 FALCON 9 DEB
1 39272U 13055H   13288.56107488  .10406099  16753+0  39534-1 0   332
2 39272 081.1062 297.1985 0195290 099.5664 272.0836 15.69388756  2366
0 FALCON 9 DEB
1 39272U 13055H   13288.75036087  .11631855  21324+0  37135-1 0   346
2 39272 081.1103 296.9512 0179913 098.1825 263.8809 15.74864035  2399
0 FALCON 9 DEB
1 39272U 13055H   13289.19296609  .26411506 -11164-5  35705-1 0   358
2 39272 081.0781 296.4285 0133301 096.1275 265.5637 15.91346939  2463
0 FALCON 9 DEB
1 39272U 13055H   13289.38095882  .52876323 -10743-5  30604-1 0   366
2 39272 081.0206 296.2363 0089709 096.5198 267.4206 16.09920126  2492
0 FALCON 9 DEB
1 39272U 13055H   13289.38095882  .52876323 -10743-5  30604-1 0   377
2 39272 081.0206 296.2363 0089709 096.5198 267.4206 16.09920126  2492
